GPS BIIR-2  (PRN 13)    
1 24876U 97035A   23182.78110591  .00000038  00000+0  00000+0 0  9998
2 24876  55.5770 140.8664 0069447  51.0372 309.5417  2.00563923190060
GPS BIIR-4  (PRN 20)    
1 26360U 00025A   23182.67129562 -.00000049  00000+0  00000+0 0  9990
2 26360  54.3756  63.2536 0041001 198.0848 170.0328  2.00575194169570
GPS BIIR-8  (PRN 16)    
1 27663U 03005A   23183.91439334  .00000040  00000+0  00000+0 0  9997
2 27663  55.2765 257.9358 0131241  44.5793 122.1046  2.00569607149633
GPS BIIR-9  (PRN 21)    
1 27704U 03010A   23184.90433029 -.00000072  00000+0  00000+0 0  9990
2 27704  55.1115   7.8881 0248183 317.2990  61.4228  2.00571887148452
GPS BIIR-11 (PRN 19)    
1 28190U 04009A   23184.46620505 -.00000059  00000+0  00000+0 0  9992
2 28190  55.7412 318.9658 0093082 135.2497 226.4409  2.00568861141323
GPS BIIR-13 (PRN 02)    
1 28474U 04045A   23183.92026106 -.00000067  00000+0  00000+0 0  9993
2 28474  55.4382   8.2280 0161232 281.0592  99.4853  2.00577658136756
GPS BIIRM-1 (PRN 17)    
1 28874U 05038A   23185.12209204 -.00000057  00000+0  00000+0 0  9995
2 28874  55.7934 316.3899 0137365 279.3032 215.7084  2.00550177130181
GPS BIIRM-2 (PRN 31)    
1 29486U 06042A   23183.59723569  .00000100  00000+0  00000+0 0  9993
2 29486  54.6878 194.1820 0102100  30.2934 345.9484  2.00573641122874
GPS BIIRM-3 (PRN 12)    
1 29601U 06052A   23184.49241731  .00000040  00000+0  00000+0 0  9992
2 29601  55.2951 256.8685 0084835  78.9481 282.0897  2.00574236121797
GPS BIIRM-4 (PRN 15)    
1 32260U 07047A   23182.80609241  .00000008  00000+0  00000+0 0  9993
2 32260  53.4414 124.8170 0148535  69.0208 292.5254  2.00554790115143
GPS BIIRM-5 (PRN 29)    
1 32384U 07062A   23183.85789494 -.00000058  00000+0  00000+0 0  9998
2 32384  55.9247 317.2517 0024716 144.7775  24.4425  2.00555308113908
GPS BIIRM-6 (PRN 07)    
1 32711U 08012A   23182.72130221  .00000108  00000+0  00000+0 0  9996
2 32711  54.4545 193.0628 0176396 235.2233 123.1487  2.00555603112066
GPS BIIRM-8 (PRN 05)    
1 35752U 09043A   23183.44774741 -.00000042  00000+0  00000+0 0  9998
2 35752  55.3780  70.2726 0058183  66.3885 114.4233  2.00561501101669
GPS BIIF-1  (PRN 25)    
1 36585U 10022A   23183.04419328  .00000050  00000+0  00000+0 0  9993
2 36585  54.5922 252.1859 0108577  59.7102 305.8419  2.00558608 95907
GPS BIIF-2  (PRN 01)    
1 37753U 11036A   23184.68494387 -.00000065  00000+0  00000+0 0  9993
2 37753  56.7319  13.8936 0127312  55.5645 139.4824  2.00567913 87610
GPS BIIF-3  (PRN 24)    
1 38833U 12053A   23184.39771302  .00000085  00000+0  00000+0 0  9997
2 38833  53.5149 187.7641 0138309  50.9280 310.3176  2.00566161 78672
GPS BIIF-4  (PRN 27)    
1 39166U 13023A   23184.25845419 -.00000054  00000+0  00000+0 0  9998
2 39166  55.4100 312.6452 0114132  41.7188 319.1450  2.00564364 74213
GPS BIIF-5  (PRN 30)    
1 39533U 14008A   23183.75618926  .00000096  00000+0  00000+0 0  9990
2 39533  53.6024 193.3398 0066992 214.5793 145.0227  2.00574661 68561
GPS BIIF-6  (PRN 06)    
1 39741U 14026A   23184.03815995 -.00000063  00000+0  00000+0 0  9993
2 39741  56.6857  13.4414 0028617 313.7359  46.0670  2.00561662 66862
GPS BIIF-7  (PRN 09)    
1 40105U 14045A   23184.12767221  .00000017  00000+0  00000+0 0  9996
2 40105  54.7953 131.5986 0022374 113.2376 246.9602  2.00573324 65308
GPS BIIF-8  (PRN 03)    
1 40294U 14068A   23183.50559348 -.00000039  00000+0  00000+0 0  9995
2 40294  56.1216  72.9656 0047867  59.0520 301.4673  2.00567419 63513
GPS BIIF-9  (PRN 26)    
1 40534U 15013A   23183.63833557  .00000054  00000+0  00000+0 0  9990
2 40534  53.4907 248.9330 0078389  25.0085 335.4608  2.00558542 60578
GPS BIIF-10 (PRN 08)    
1 40730U 15033A   23184.79657465 -.00000052  00000+0  00000+0 0  9999
2 40730  54.8992 311.2683 0084225  14.1231 346.1132  2.00558426 58364
GPS BIIF-11 (PRN 10)    
1 41019U 15062A   23182.85643490 -.00000042  00000+0  00000+0 0  9999
2 41019  56.1053  72.8401 0087040 221.5377 137.8442  2.00562179 56142
GPS BIIF-12 (PRN 32)    
1 41328U 16007A   23184.44240788  .00000018  00000+0  00000+0 0  9994
2 41328  55.0018 132.3492 0071442 235.0119 124.2790  2.00552895 54226
GPS BIII-1  (PRN 04)    
1 43873U 18109A   23182.87170164  .00000026  00000+0  00000+0 0  9990
2 43873  55.1780 134.9130 0024691 194.0180   4.4853  2.00565854 33330
GPS BIII-2  (PRN 18)    
1 44506U 19056A   23184.01782220 -.00000065  00000+0  00000+0 0  9990
2 44506  55.8086  13.9461 0034037 182.6958  23.9133  2.00564453 28407
GPS BIII-3  (PRN 23)    
1 45854U 20041A   23183.64587816 -.00000040  00000+0  00000+0 0  9998
2 45854  55.8270  71.2407 0033338 186.1361  55.3425  2.00564875 22366
GPS BIII-4  (PRN 14)    
1 46826U 20078A   23182.83942116  .00000044  00000+0  00000+0 0  9999
2 46826  54.3418 254.6876 0033664 192.8442 161.7973  2.00562592 19817
GPS BIII-5  (PRN 11)    
1 48859U 21054A   23185.02606122 -.00000069  00000+0  00000+0 0  9998
2 48859  55.3242  15.7216 0009726 208.3781 105.0026  2.00577040 15108
GPS BIII-6  (PRN 28)    
1 55268U 23009A   23183.18911580  .00000104  00000+0  00000+0 0  9993
2 55268  55.0933 190.9289 0004078  98.7191  13.3888  2.00559822  3552
